NUSAT-1 (FRESCO)        
1 41557U 16033B   21360.40797984  .00008530  00000+0  28830-3 0  9994
2 41557  97.3920  93.4168 0010798 274.6893 149.8707 15.30838397310882
BEESAT-4                
1 41619U 16040W   21360.11325423  .00008390  00000+0  31897-3 0  9995
2 41619  97.2448  50.7048 0010751  22.3438 337.8268 15.26973482294242
CAS-2T & KS-1Q          
1 41847U 16066G   21360.13886537  .00000413  00000+0  72210-4 0  9999
2 41847  98.5771  59.8153 0364999   8.1960 352.4974 14.38309976269436
NAYIF-1 (EO-88)         
1 42017U 17008BX  21360.13314956  .00010192  00000+0  35491-3 0  9991
2 42017  97.2943  64.2359 0006767 136.0841 224.0938 15.29841534270546
ZHUHAI-1 02 (CAS-4B)    
1 42759U 17034B   21360.46863022  .00002179  00000+0  14247-3 0  9994
2 42759  43.0166 205.1493 0009172 286.8916 146.9775 15.10661577250186
ZHUHAI-1 01 (CAS-4A)    
1 42761U 17034D   21360.51691008  .00002271  00000+0  14763-3 0  9992
2 42761  43.0167 203.8002 0009487 287.8581 158.4782 15.10749402250190
MAX VALIER SAT          
1 42778U 17036P   21360.09348448  .00004896  00000+0  20153-3 0  9997
2 42778  97.2316  42.2458 0010611 212.4890 147.5696 15.24528975250472
RADFXSAT (FOX-1B)       
1 43017U 17073E   21360.16999787  .00003401  00000+0  26247-3 0  9992
2 43017  97.6918 256.4148 0254077  34.8207 326.9338 14.80068603221472
FOX-1D (AO-92)          
1 43137U 18004AC  21360.16947980  .00006380  00000+0  24812-3 0  9993
2 43137  97.3894  72.1605 0006882 251.4422 108.6069 15.26356613219881
DIWATA-2B               
1 43678U 18084H   21360.42052848  .00000514  00000+0  56613-4 0  9998
2 43678  97.9476 126.9943 0010967 131.6034 228.6115 14.91863104172054
ES'HAIL 2               
1 43700U 18090A   21360.14007606  .00000163  00000+0  00000+0 0  9996
2 43700   0.0151  67.7393 0002216 234.8097 228.5405  1.00273267 11536
FOX-1CLIFF (AO-95)      
1 43770U 18099N   21360.15017226  .00001908  00000+0  17647-3 0  9999
2 43770  97.6452  65.9083 0015598 132.4272 227.8271 14.95626353167104
ITASAT 1                
1 43786U 18099AE  21359.76630805  .00001136  00000+0  10642-3 0  9996
2 43786  97.6474  66.3444 0016179 127.3510 232.9188 14.95878863167081
JY1SAT (JO-97)          
1 43803U 18099AX  21359.76219478  .00001442  00000+0  13271-3 0  9996
2 43803  97.6435  66.0775 0016179 126.7288 233.5422 14.96191316167098
UWE-4                   
1 43880U 18111E   21360.21804843  .00002425  00000+0  21436-3 0  9998
2 43880  97.6774 264.5713 0012269 173.5371 186.6011 14.97212266161775
NEXUS (FO-99)           
1 43937U 19003F   21359.89020926  .00007270  00000+0  27442-3 0  9992
2 43937  97.1542  35.2820 0023835  55.6900 304.6591 15.27039848163467
PSAT2 (NO-104)          
1 44354U 19036R   21360.11265939  .00030195  00000+0  36066-3 0  9998
2 44354  28.5280 282.1471 0293659 205.5941 152.9851 15.21960047138101
BRICSAT2 (NO-103)       
1 44355U 19036S   21359.91756114  .00099132 -41242-5  76582-3 0  9998
2 44355  28.5232 197.5222 0192778 343.5375  15.9033 15.49635800138933
JAISAT-1                
1 44419U 19038F   21360.15476527  .00005535  00000+0  30108-3 0  9994
2 44419  97.6151 324.5267 0021121  15.9181 344.2710 15.14689284136801
DUCHIFAT-3              
1 44854U 19089C   21360.41507360  .00002780  00000+0  22593-3 0  9990
2 44854  36.9662  45.1239 0008439 261.8249  98.1534 14.99908226111934
CAS-6 (TO-108)          
1 44881U 19093C   21360.48617125  .00000399  00000+0  57473-4 0  9993
2 44881  97.9106  77.0764 0015886  33.4552 326.7661 14.81530640109160
RS-44 & BREEZE-KM R/B   
1 44909U 19096E   21359.93935266  .00000027  00000+0  66424-4 0  9998
2 44909  82.5214 345.5744 0217572   5.7333 354.6182 12.79711881 93317
ORBITAL FACTORY 2 (OF-2)
1 45113U 19071C   21360.50310766  .00011486  00000+0  31020-3 0  9990
2 45113  51.6400 184.9434 0010470 265.1462  94.8327 15.38172030106700
HUSKYSAT-1 (HO-107)     
1 45119U 19071J   21360.06615630  .00012425  00000+0  33667-3 0  9998
2 45119  51.6390 186.5131 0010082 259.4279 100.5569 15.37989575106631
BY70-2                  
1 45857U 20042B   21360.45716584  .00004432  00000+0  62424-3 0  9992
2 45857  97.9721  74.1569 0009467 318.0731  41.9764 14.77768126 79890
SALSAT                  
1 46495U 20068K   21359.92478261  .00001225  00000+0  93620-4 0  9996
2 46495  97.7101 296.4798 0016933 140.0148 220.2331 15.03725447 68106
BY70-3                  
1 46839U 20079N   21360.42647683  .00013691  00000+0  39490-3 0  9997
2 46839  97.2224  70.4966 0005645 225.2016 263.6334 15.35801686 63647
RADFXSAT-2 (AO-109)     
1 47311U 21002C   21360.17541258  .00005319  00000+0  23534-3 0  9993
2 47311  60.6860 293.0341 0031805 145.8496 214.4645 15.22652478 52061
UVSQ-SAT                
1 47438U 21006AB  21359.72576949  .00004518  00000+0  25332-3 0  9999
2 47438  97.4636  57.3299 0013292 151.4104 208.7859 15.13809343 50989
DIY-1 (ARDUIQUBE)       
1 47963U 21022AH  21360.21101643  .00010387  00000+0  66169-3 0  9995
2 47963  97.5448 259.1338 0019634  13.3427 346.8317 15.08776395 40795
